{
  "links" : {
    "next" : "https://api.nasa.gov/neo/rest/v1/feed?start_date=2005-04-16&end_date=2005-04-16&detailed=true&api_key=t0TVs3DtDT2H8Oy2Zy8m2eVrNsAVKAexjcZXUckd",
    "prev" : "https://api.nasa.gov/neo/rest/v1/feed?start_date=2005-04-14&end_date=2005-04-14&detailed=true&api_key=t0TVs3DtDT2H8Oy2Zy8m2eVrNsAVKAexjcZXUckd",
    "self" : "https://api.nasa.gov/neo/rest/v1/feed?start_date=2005-04-15&end_date=2005-04-15&detailed=true&api_key=t0TVs3DtDT2H8Oy2Zy8m2eVrNsAVKAexjcZXUckd"
  },
  "element_count" : 9,
  "near_earth_objects" : {
    "2005-04-15" : [ {
      "links" : {
        "self" : "https://api.nasa.gov/neo/rest/v1/neo/3092296?api_key=t0TVs3DtDT2H8Oy2Zy8m2eVrNsAVKAexjcZXUckd"
      },
      "neo_reference_id" : "3092296",
      "name" : "(2001 GO2)",
      "nasa_jpl_url" : "http://ssd.jpl.nasa.gov/sbdb.cgi?sstr=3092296",
      "absolute_magnitude_h" : 24.3,
      "estimated_diameter" : {
        "kilometers" : {
          "estimated_diameter_min" : 0.0366906138,
          "estimated_diameter_max" : 0.0820427065
        },
        "meters" : {
          "estimated_diameter_min" : 36.6906137531,
          "estimated_diameter_max" : 82.0427064882
        },
        "miles" : {
          "estimated_diameter_min" : 0.0227984834,
          "estimated_diameter_max" : 0.0509789586
        },
        "feet" : {
          "estimated_diameter_min" : 120.3760332259,
          "estimated_diameter_max" : 269.1689931548
        }
      },
      "is_potentially_hazardous_asteroid" : false,
      "close_approach_data" : [ {
        "close_approach_date" : "2005-04-15",
        "epoch_date_close_approach" : 1113548400000,
        "relative_velocity" : {
          "kilometers_per_second" : "10.8700461756",
          "kilometers_per_hour" : "39132.1662320318",
          "miles_per_hour" : "24315.20629012"
        },
        "miss_distance" : {
          "astronomical" : "0.2032001124",
          "lunar" : "79.0448455811",
          "kilometers" : "30398306",
          "miles" : "18888632"
        },
        "orbiting_body" : "Earth"
      } ],
      "orbital_data" : {
        "orbit_id" : "12",
        "orbit_determination_date" : "2017-04-06 09:16:26",
        "orbit_uncertainty" : "7",
        "minimum_orbit_intersection" : ".00336216",
        "jupiter_tisserand_invariant" : "6.033",
        "epoch_osculation" : "2458000.5",
        "eccentricity" : ".1682252090459494",
        "semi_major_axis" : "1.006682573148335",
        "inclination" : "4.625123200742138",
        "ascending_node_longitude" : "193.5434227412754",
        "orbital_period" : "368.9242921416832",
        "perihelion_distance" : ".8373331868375422",
        "perihelion_argument" : "265.4699970089685",
        "aphelion_distance" : "1.176031959459128",
        "perihelion_time" : "2457825.357761166558",
        "mean_anomaly" : "170.905541660089",
        "mean_motion" : ".9758099633670752",
        "equinox" : "J2000"
      }
    }, {
      "links" : {
        "self" : "https://api.nasa.gov/neo/rest/v1/neo/3256327?api_key=t0TVs3DtDT2H8Oy2Zy8m2eVrNsAVKAexjcZXUckd"
      },
      "neo_reference_id" : "3256327",
      "name" : "(2004 TK10)",
      "nasa_jpl_url" : "http://ssd.jpl.nasa.gov/sbdb.cgi?sstr=3256327",
      "absolute_magnitude_h" : 21.3,
      "estimated_diameter" : {
        "kilometers" : {
          "estimated_diameter_min" : 0.1460679643,
          "estimated_diameter_max" : 0.3266178974
        },
        "meters" : {
          "estimated_diameter_min" : 146.0679642714,
          "estimated_diameter_max" : 326.6178974458
        },
        "miles" : {
          "estimated_diameter_min" : 0.090762397,
          "estimated_diameter_max" : 0.2029508896
        },
        "feet" : {
          "estimated_diameter_min" : 479.2256199,
          "estimated_diameter_max" : 1071.581062656
        }
      },
      "is_potentially_hazardous_asteroid" : false,
      "close_approach_data" : [ {
        "close_approach_date" : "2005-04-15",
        "epoch_date_close_approach" : 1113548400000,
        "relative_velocity" : {
          "kilometers_per_second" : "17.3893223179",
          "kilometers_per_hour" : "62601.5603445379",
          "miles_per_hour" : "38898.1750929714"
        },
        "miss_distance" : {
          "astronomical" : "0.2574884121",
          "lunar" : "100.1629867554",
          "kilometers" : "38519716",
          "miles" : "23935042"
        },
        "orbiting_body" : "Earth"
      } ],
      "orbital_data" : {
        "orbit_id" : "22",
        "orbit_determination_date" : "2017-09-12 06:19:43",
        "orbit_uncertainty" : "1",
        "minimum_orbit_intersection" : ".255711",
        "jupiter_tisserand_invariant" : "5.702",
        "epoch_osculation" : "2458000.5",
        "eccentricity" : ".298757706829658",
        "semi_major_axis" : "1.057704503125048",
        "inclination" : "24.60326011938871",
        "ascending_node_longitude" : "205.3237090559524",
        "orbital_period" : "397.3241444312952",
        "perihelion_distance" : ".7417071312680061",
        "perihelion_argument" : "347.7023006992476",
        "aphelion_distance" : "1.373701874982091",
        "perihelion_time" : "2457840.779297829525",
        "mean_anomaly" : "144.7167346542005",
        "mean_motion" : ".9060612224189933",
        "equinox" : "J2000"
      }
    }, {
      "links" : {
        "self" : "https://api.nasa.gov/neo/rest/v1/neo/3635076?api_key=t0TVs3DtDT2H8Oy2Zy8m2eVrNsAVKAexjcZXUckd"
      },
      "neo_reference_id" : "3635076",
      "name" : "(2013 HS11)",
      "nasa_jpl_url" : "http://ssd.jpl.nasa.gov/sbdb.cgi?sstr=3635076",
      "absolute_magnitude_h" : 22.7,
      "estimated_diameter" : {
        "kilometers" : {
          "estimated_diameter_min" : 0.0766575574,
          "estimated_diameter_max" : 0.1714115092
        },
        "meters" : {
          "estimated_diameter_min" : 76.6575573531,
          "estimated_diameter_max" : 171.4115092306
        },
        "miles" : {
          "estimated_diameter_min" : 0.0476327831,
          "estimated_diameter_max" : 0.1065101409
        },
        "feet" : {
          "estimated_diameter_min" : 251.5011804664,
          "estimated_diameter_max" : 562.3737359442
        }
      },
      "is_potentially_hazardous_asteroid" : false,
      "close_approach_data" : [ {
        "close_approach_date" : "2005-04-15",
        "epoch_date_close_approach" : 1113548400000,
        "relative_velocity" : {
          "kilometers_per_second" : "16.5765681494",
          "kilometers_per_hour" : "59675.6453378328",
          "miles_per_hour" : "37080.1252933884"
        },
        "miss_distance" : {
          "astronomical" : "0.1401259101",
          "lunar" : "54.5089797974",
          "kilometers" : "20962538",
          "miles" : "13025518"
        },
        "orbiting_body" : "Earth"
      } ],
      "orbital_data" : {
        "orbit_id" : "9",
        "orbit_determination_date" : "2017-04-06 08:46:02",
        "orbit_uncertainty" : "6",
        "minimum_orbit_intersection" : ".00365364",
        "jupiter_tisserand_invariant" : "4.726",
        "epoch_osculation" : "2458000.5",
        "eccentricity" : ".4425471525422656",
        "semi_major_axis" : "1.363505481491979",
        "inclination" : "7.857214598208307",
        "ascending_node_longitude" : "195.6250709734271",
        "orbital_period" : "581.5455799128268",
        "perihelion_distance" : ".7600900131819329",
        "perihelion_argument" : "284.2695097927996",
        "aphelion_distance" : "1.966920949802025",
        "perihelion_time" : "2458076.176328655712",
        "mean_anomaly" : "313.1533223584295",
        "mean_motion" : ".619040041631756",
        "equinox" : "J2000"
      }
    } ]
  }
}